[{"OBJECT_NAME":"VSP RF C1","OBJECT_ID":"2024-043AQ","EPOCH":"2026-03-09T21:56:05.358624","MEAN_MOTION":15.29409663,"ECCENTRICITY":0.00093965,"INCLINATION":97.5441,"RA_OF_ASC_NODE":205.1792,"ARG_OF_PERICENTER":219.6172,"MEAN_ANOMALY":140.4382,"EPHEMERIS_TYPE":0,"CLASSIFICATION_TYPE":"U","NORAD_CAT_ID":59136,"ELEMENT_SET_NO":999,"REV_AT_EPOCH":11190,"BSTAR":0.00026222052,"MEAN_MOTION_DOT":7.409e-5,"MEAN_MOTION_DDOT":0},{"OBJECT_NAME":"STARLINK-32184","OBJECT_ID":"2024-155U","EPOCH":"2026-03-09T11:00:31.565952","MEAN_MOTION":15.30171337,"ECCENTRICITY":9.928e-5,"INCLINATION":53.1599,"RA_OF_ASC_NODE":130.8751,"ARG_OF_PERICENTER":67.7239,"MEAN_ANOMALY":292.3867,"EPHEMERIS_TYPE":0,"CLASSIFICATION_TYPE":"U","NORAD_CAT_ID":60942,"ELEMENT_SET_NO":999,"REV_AT_EPOCH":8625,"BSTAR":-8.6684089e-5,"MEAN_MOTION_DOT":-2.923e-5,"MEAN_MOTION_DDOT":0}]
